Betrieb_Einheit,Strasse_Nummer,PLZ,Ort,Tel_nummer,Anzahl_bewilligte_Betten,Bezirk,ObjectId,geometry,x,y
GerAtrium Pfäffikon ZH,Hörnlistrasse 76,8330,Pfäffikon,044 953 43 42,97,Pfäffikon,1,POINT (2702108.842950496 1247141.450769246),2702108.8429504964,1247141.4507692459
Alters- und Pflegezentrum Rosengasse,Rosengasse 8,8332,Russikon,044 954 88 18,32,Pfäffikon,2,POINT (2700851.930884499 1250164.826551434),2700851.930884499,1250164.8265514337
Almacasa,Dorfstrasse 3b,8484,Weisslingen,052 544 44 44,30,Pfäffikon,3,POINT (2700020.644896865 1253977.359307643),2700020.6448968654,1253977.3593076426
Oase Effretikon,Bietenholzstrasse 1,8307,Effretikon,052 354 54 54,33,Pfäffikon,4,POINT (2694106.337526813 1253183.279067036),2694106.337526813,1253183.2790670358
Seniorenzentrum Zion,Ringwiesenstrasse 14,8600,Dübendorf,044 802 18 18,61,Uster,5,POINT (2688101.136477804 1250213.341795314),2688101.1364778043,1250213.3417953139
IMWIL Alters- und Spitexzentrum,Fällandenstrasse 22,8600,Dübendorf,044 802 83 00,179,Uster,6,POINT (2689177.763149855 1249182.771813316),2689177.7631498547,1249182.7718133163
IMWIL Alters- und Spitexzentrum - Pflegewohnung Högler,Höglerstrasse 38,8600,Dübendorf,044 822 04 36,8,Uster,7,POINT (2688712.204658126 1249662.891546415),2688712.204658126,1249662.8915464152
IMWIL Alters- und Spitexzentrum - Gerontopsychiatrische WG Chürzi,Chürzistrasse 25,8600,Dübendorf,044 820 25 31,9,Uster,8,POINT (2689117.351297809 1249273.760543154),2689117.351297809,1249273.760543154
IMWIL Alters- und Spitexzentrum - Pflegewohnung Unterdorf,Mettlenweg 4b,8600,Dübendorf,044 821 01 79,9,Uster,9,POINT (2689092.914971461 1250416.233637305),2689092.9149714606,1250416.233637305
IMWIL Alters- und Spitexzentrum - Pflegewohnung Heugatter,Heugatterstrasse 7b,8600,Dübendorf,043 355 04 10,8,Uster,10,POINT (2688591.124586555 1250199.716745012),2688591.124586555,1250199.7167450124
Stiftung Loogarten - Alters- und Pflegezentrum,Im Loo 1,8133,Esslingen,044 986 22 11,98,Uster,11,POINT (2696297.515179513 1238626.493808112),2696297.5151795126,1238626.4938081123
Alterszentrum Sunnetal,Sunnetalstrasse 2a,8117,Fällanden,043 355 53 40,32,Uster,12,POINT (2690997.64992735 1247399.663929002),2690997.6499273498,1247399.6639290021
Pflegezentrum Forch,Aeschstrasse 8,8127,Forch,044 806 14 14,92,Uster,13,POINT (2692114.687278957 1242491.703554797),2692114.687278957,1242491.7035547965
Pflegezentrum Senevita Obstgarten,Obstgartenstrasse 9,8910,Affoltern a. Albis,043 322 69 69,120,Affoltern,14,POINT (2676054.929513691 1236497.823430735),2676054.929513691,1236497.8234307354
Alters- und Pflegeheim Zentrum Im Hof,Im Hof 15,8606,Greifensee,043 366 35 35,36,Uster,15,POINT (2693804.107652971 1246737.615459328),2693804.1076529706,1246737.6154593276
Tertianum Im Vieri,Sonnenbergstrasse 68,8603,Schwerzenbach,043 355 42 01,52,Uster,16,POINT (2691745.324126071 1249114.198459913),2691745.3241260713,1249114.1984599135
Alters- und Pflegeheim Zum Lärchenbaum,In der Halden 8,8603,Schwerzenbach,044 825 33 82,14,Uster,17,POINT (2691421.747136138 1248686.561882823),2691421.7471361384,1248686.5618828232
Pflegezentrum Dietenrain,Dietenrainweg 15,8616,Riedikon-Uster,044 905 83 00,98,Uster,18,POINT (2696564.444470399 1243723.515474226),2696564.4444703986,1243723.515474226
Altersheim Im Grund,Asylstrasse 15,8610,Uster,044 905 12 12,28,Uster,19,POINT (2697190.296500024 1245331.825828942),2697190.296500024,1245331.8258289415
Haus zum Seewadel,Obere Seewadelstrasse 12,8910,Affoltern a. Albis,043 322 74 74,78,Affoltern,20,POINT (2676213.980773793 1236832.472753754),2676213.9807737926,1236832.4727537541
Sonnenberg - Haus Rigi (PH),Melchior-Hirzel-Weg 42,8910,Affoltern a. Albis,044 714 21 11,51,Affoltern,21,POINT (2676915.805370037 1237714.825931653),2676915.805370037,1237714.8259316527
Altersheim Im Grund - Wohnheim Im Grund,Wagerenstrasse 18,8610,Uster,044 905 12 44,28,Uster,22,POINT (2697249.008322072 1245368.41125051),2697249.008322072,1245368.4112505096
Pflegezentrum Im Grund,Wagerenstrasse 20,8610,Uster,044 905 11 11,100,Uster,23,POINT (2697249.008322072 1245368.41125051),2697249.008322072,1245368.4112505096
Sonnenberg - Haus Pilatus (APH),Melchior-Hirzel-Weg 42,8910,Affoltern a. Albis,044 714 21 11,86,Affoltern,24,POINT (2676915.805370037 1237714.825931653),2676915.805370037,1237714.8259316527
Wohn- und Pflegezentrum Lichthof,Oberlandstrasse 56,8610,Uster,044 940 26 36,52,Uster,25,POINT (2696264.292791949 1245714.414644885),2696264.2927919487,1245714.414644885
Plfegewohnung Garten Lichthof,Apothekerstrasse 19,8610,Uster,044 940 26 36,11,Uster,26,POINT (2696486.604360709 1244721.968861393),2696486.604360709,1244721.9688613934
Zentrum Kohlfirst,Rütenenweg 6,8245,Feuerthalen,052 647 11 11,79,Andelfingen,27,POINT (2690294.723766603 1282845.548628581),2690294.7237666026,1282845.5486285805
Pflegewohnung Veteris Pfaffhausen,Waldstrasse 16,8118,Pfaffhausen,044 501 85 02,10,Uster,28,POINT (2689406.397851519 1246961.517583901),2689406.3978515193,1246961.5175839008
Prix Santé - Pflege im Zentrum,Neuwiesenstrasse 1,8610,Uster,043 466 94 64,26,Uster,29,POINT (2696889.008549049 1245170.013439477),2696889.0085490495,1245170.0134394767
Alterswohnheim Flaachtal,Tuechstrasse 8,8416,Flaach,052 305 36 00,41,Andelfingen,30,POINT (2687374.366781672 1269737.257225251),2687374.3667816725,1269737.2572252508
Tertianum Brunnehof,Industriestrasse 10,8610,Uster,044 905 26 26,18,Uster,31,POINT (2696677.870917612 1245342.422545556),2696677.8709176118,1245342.4225455562
Wohn- und Pflegezentrum Rosengarten,Schaffhauserstrasse 16,8451,Kleinandelfingen,052 305 22 88,48,Andelfingen,32,POINT (2693570.483864713 1272713.560010367),2693570.4838647125,1272713.5600103673
"Wagerenhof, Heim für Menschen mit einer geistiger Behinderung (Invalideneinrichtung mit Pflegebetten)",Asylstrasse 24,8610,Uster,044 905 13 11,169,Uster,33,POINT (2697289.642774397 1245301.924735544),2697289.642774397,1245301.9247355442
VitaFutura Pflegezentrum,In der Au 5,8604,Volketswil,043 399 36 00,79,Uster,34,POINT (2694383.46277525 1249617.738612914),2694383.46277525,1249617.7386129135
Zentrum für Pflege & Betreuung Weinland,Oberhusestrasse 1,8460,Marthalen,052 304 85 85,66,Andelfingen,35,POINT (2691225.858109259 1275695.737242981),2691225.858109259,1275695.7372429809
VitaFutura Pflegezentrum - VitaFutura Pflegewohnung Riethof,Riethof 10,8604,Volketswil,043 399 48 48,8,Uster,36,POINT (2692329.683962869 1249325.621804703),2692329.6839628695,1249325.621804703
Alters-und Pflegezentrum Stammertal,Kirchweg 2,8477,Oberstammheim,052 744 11 44,49,Andelfingen,37,POINT (2702002.91850805 1276829.380291831),2702002.91850805,1276829.3802918312
KZU Pflegezentrum Bächli,Im Bächli 1,8303,Bassersdorf,044 838 51 11,102,Bülach,38,POINT (2690262.881758322 1255038.097064528),2690262.8817583225,1255038.097064528
Alters- und Pflegezentrum Breiti,Breitistrasse 25,8303,Bassersdorf,044 838 83 83,65,Bülach,39,POINT (2690120.727813031 1255318.587376473),2690120.727813031,1255318.5873764728
Alterszentrum Im Grampen,Allmendstrasse 1,8180,Bülach,044 861 80 00,73,Bülach,40,POINT (2682897.638585059 1263353.988796592),2682897.638585059,1263353.9887965925
Alters- und Pflegeheim Rössligasse,Rössligasse 7,8180,Bülach,044 861 82 00,46,Bülach,41,POINT (2682959.654402683 1263547.211272947),2682959.6544026835,1263547.2112729475
Pflegewohnung Soligänter,Soligänterstrasse 32,8180,Bülach,044 861 83 30,16,Bülach,42,POINT (2683103.189321344 1264725.08488995),2683103.1893213443,1264725.0848899498
Pflegewohngruppe Gringglen,Gringglenstrasse 21,8180,Bülach,044 861 83 00,14,Bülach,43,POINT (2682029.974445489 1263036.142362586),2682029.974445489,1263036.1423625855
Pflegewohngruppe Bergli,Trottenstrasse 1,8180,Bülch,044 861 83 70,18,Bülach,44,POINT (2683527.2730605 1264162.491285245),2683527.2730604997,1264162.4912852452
Pflegewohnung Im Baumgarten,Schulhausstrasse 4,8184,Bachenbülach,044 861 83 50,18,Bülach,45,POINT (2683533.737265357 1261964.74681701),2683533.737265357,1261964.74681701
Pflegewohngruppe Oase am Rhein,Murstrasse 15,8193,Eglisau,044 868 12 12,18,Bülach,46,POINT (2681167.036831887 1270193.069612812),2681167.0368318874,1270193.0696128123
Alterszentrum Hofwiesen,Bahnhofstrasse 64,8305,Dietlikon,044 805 86 86,66,Bülach,47,POINT (2689075.72821441 1253381.942725413),2689075.72821441,1253381.9427254125
Pflegezentrum Rotacher - Schwerzelbodenstrasse,Schwerzelbodenstrasse 41,8305,Dietlikon,044 835 71 71,102,Bülach,48,POINT (2688621.822931866 1252739.137054969),2688621.822931866,1252739.1370549693
Pflegezentrum Rotacher - Sonnenbühlstrasse,Sonnenbühlstrasse,8305,Dietlikon,044 835 71 71,22,Bülach,49,POINT (2688871.158811014 1252846.235862658),2688871.158811014,1252846.235862658
Alters- und Pflegeheim Weierbach,Weierbachstrasse 4,8193,Eglisau,044 868 11 11,46,Bülach,50,POINT (2681989.381013134 1269963.94062676),2681989.381013134,1269963.9406267595
Riiburg - Wohngruppe für demenzkranke Menschen,Burgstrasse 3,8193,Eglisau,043 422 53 70,14,Bülach,51,POINT (2682034.517884332 1269938.353205626),2682034.5178843318,1269938.3532056257
KZU Pflegezentrum Embrach,Römerweg 51,8424,Embrach,043 266 51 11,176,Bülach,52,POINT (2686337.777981008 1264376.529215465),2686337.777981008,1264376.5292154646
Regionales Alterszentrum Embrachertal,Stationsstrasse 33,8424,Embrach,044 866 25 00,80,Bülach,53,POINT (2686802.247678282 1263044.972316531),2686802.247678282,1263044.9723165308
Alterszentrum Gibeleich,Talackerstrasse 70,8152,Glattbrugg,044 829 85 85,76,Bülach,54,POINT (2684971.812228533 1253704.307211281),2684971.812228533,1253704.3072112806
Wohngruppe Böschenmatte,Böschenwiesenstrasse 11,8152,Glattbrugg,044 829 85 30,16,Bülach,55,POINT (2685288.707712839 1253377.937943588),2685288.707712839,1253377.9379435885
Tertianum Bubenholz,Müllackerstrasse 2/4,8152,Opfikon,043 544 91 91,43,Bülach,56,POINT (2685353.750539523 1254272.170562511),2685353.7505395226,1254272.1705625113
Alters- und Pflegeheim Eichhölzli,Schachemerstrasse 15,8192,Glattfelden,044 868 14 20,42,Bülach,57,POINT (2680203.047018917 1267703.146627384),2680203.0470189173,1267703.1466273845
Pflegewohngruppe Rössli,Bahnhofstrasse 77,8194,Hüntwangen,043 433 53 07,10,Bülach,58,POINT (2679241.638913164 1272102.867458835),2679241.638913164,1272102.8674588345
Pflegezentrum im Spitz,Schulstrasse 22,8302,Kloten,044 815 18 18,98,Bülach,59,POINT (2686472.651546128 1255697.36970204),2686472.6515461276,1255697.36970204
Pflegezentrum im Spitz - Pflegewohnung Schaffhauserstr.,Schaffhauserstrasse 136,8302,Kloten,044 815 18 18,8,Bülach,60,POINT (2686154.170211001 1256345.612637778),2686154.1702110013,1256345.6126377783
Pflegezentrum im Spitz - Pflegewohnung Rätschengässli,Rätschengässli 30,8302,Kloten,044 815 18 18,8,Bülach,61,POINT (2686511.35326463 1256464.015647845),2686511.3532646303,1256464.015647845
Pflegezentrum im Spitz - Pflegewohnung Bramenring,Bramenring 6,8302,Kloten,044 815 18 18,9,Bülach,62,POINT (2686021.970688027 1255380.209419944),2686021.970688027,1255380.2094199439
Pflegezentrum im Spitz - Pflegestation Kirchgasse,Kirchgasse 23,8302,Kloten,044 815 18 18,24,Bülach,63,POINT (2686293.08189662 1256297.912518281),2686293.0818966203,1256297.9125182813
Pflegewohnung Nürensdorf OG 1,Alte Winterthurerstrasse 49,8309,Nürensdorf,044 838 16 16,8,Bülach,64,POINT (2691285.476729565 1255901.12598458),2691285.4767295653,1255901.1259845805
Pflegewohnung Nürensdorf OG 2,Alte Winterthurerstrasse 49,8309,Nürensdorf,044 838 16 16,8,Bülach,65,POINT (2691285.476729565 1255901.12598458),2691285.4767295653,1255901.1259845805
Alters- und Pflegeheim Peteracker,Landstrasse 94,8197,Rafz,044 879 16 16,42,Bülach,66,POINT (2683875.716811318 1274546.229862224),2683875.716811318,1274546.229862224
Wägelwiesen Alters- und Pflegezentrum AG,Obere Kirchstrasse 33,8304,Wallisellen,044 877 76 76,120,Bülach,67,POINT (2687375.600616293 1252497.169206161),2687375.6006162935,1252497.1692061606
Gesundheitszentrum Dielsdorf,Breitestrasse 11,8157,Dielsdorf,044 854 61 11,290,Dielsdorf,68,POINT (2676270.193522674 1259175.489218142),2676270.193522674,1259175.4892181421
Pflegewohngruppe Bürgli,Buchserstrasse 24,8157,Dielsdorf,044 854 69 90,34,Dielsdorf,69,POINT (2676397.88845558 1259035.385394755),2676397.88845558,1259035.3853947546
Pflegewohngruppe Regensdorf,Roosstrasse 44a,8105,Regensdorf,043 931 54 77,12,Dielsdorf,70,POINT (2678021.287390473 1253849.630717805),2678021.2873904733,1253849.6307178051
Pflegewohngruppe Oberglatt,Gartenstrasse 7,8154,Oberglatt,043 931 54 77,16,Dielsdorf,71,POINT (2681473.766303263 1258910.091282599),2681473.766303263,1258910.0912825991
Alters- und Pflegeheim Eichi,Grafschaftstrasse 53,8172,Niederglatt,044 851 82 00,41,Dielsdorf,72,POINT (2680033.636139847 1260865.031256655),2680033.636139847,1260865.031256655
Hirzelheim Regensberg,Unterburg 23,8158,Regensberg,044 853 12 32,23,Dielsdorf,73,POINT (2675247.178754239 1259536.440467763),2675247.1787542393,1259536.4404677635
Forensisch-Psychiatrische Abteilung für stationäre Massnahmen in der Strafanstalt Pöschwies (FPA),Roosstrasse 49 / Postfach 3143,8105,Regensdorf,044 853 12 32,24,Dielsdorf,74,POINT (2678108.29473165 1254235.700360537),2678108.29473165,1254235.7003605373
Alters- und Pflegeheim Furttal,Feldblumenstrasse 17,8105,Regensdorf,044 843 21 11,55,Dielsdorf,75,POINT (2677606.896439858 1254174.438574886),2677606.896439858,1254174.4385748857
Alterszentrum Lindenhof,Lindenstrasse 18,8153,Rümlang,044 817 66 00,53,Dielsdorf,76,POINT (2682446.578031275 1255998.615529398),2682446.5780312754,1255998.6155293975
Wohngruppe Haus am Dorfplatz,Lindenstrasse 8,8153,Rümlang,044 817 66 00,17,Dielsdorf,77,POINT (2682409.738901699 1256067.60852786),2682409.738901699,1256067.6085278597
Oase Rümlang AG - Pflegewohnung Oase Rümlang EG,Ifangstrasse 21,8153,Rümlang,044 817 66 00,18,Dielsdorf,78,POINT (2682693.96187309 1256178.421493977),2682693.9618730904,1256178.4214939773
Oase Rümlang AG - Pflegewohnung Oase Rümlang OG 2,Ifangstrasse 21,8153,Rümlang,044 817 66 00,15,Dielsdorf,79,POINT (2682693.96187309 1256178.421493977),2682693.9618730904,1256178.4214939773
Alterszentrum Wehntal,Chileweg 14,8165,Schöfflisdorf,044 857 14 14,43,Dielsdorf,80,POINT (2673476.691876069 1261599.101053131),2673476.6918760687,1261599.1010531308
Tertianum Zur Heimat,Buechenstrasse 80,8174,Stadel,044 859 20 59,50,Dielsdorf,81,POINT (2677214.949193364 1265094.122761508),2677214.949193364,1265094.1227615078
Senevita Mülibach,Mülibachstrasse 20,8107,Buchs,044 800 83 00,81,Dielsdorf,82,POINT (2675109.958871967 1256254.521627739),2675109.958871967,1256254.5216277393
Pflegewohngruppe Züriunterland,Rebhaldenstrasse 8,8173,Riedt bei Neerach,044 858 08 17,6,Dielsdorf,83,POINT (2677756.004106885 1261665.366542156),2677756.0041068853,1261665.3665421559
Alterszentrum am Bach,Bachstrasse 1,8903,Birmensdorf,044 739 39 39,61,Dietikon,84,POINT (2675493.532700886 1245188.494431554),2675493.5327008856,1245188.4944315543
Alters- und Gesundheitszentrum Dietikon,Bremgartnerstrasse 39,8953,Dietikon,044 746 96 96,88,Dietikon,85,POINT (2672643.527673976 1250482.90305538),2672643.527673976,1250482.9030553803
Alters- und Gesundheitszentrum Dietikon - Altersheim Oberdorf,Oberdorfstrasse 15,8953,Dietikon,044 746 96 96,31,Dietikon,86,POINT (2672539.117202745 1250566.77535834),2672539.117202745,1250566.7753583402
Alterszentrum Hochweid,Stockenstrasse 124,8802,Kilchberg,044 716 36 36,59,Horgen,87,POINT (2683267.744098803 1241604.507547701),2683267.7440988026,1241604.5075477005
Pflegewohnung Töss I,Schlosstalstrasse 13,8400,Winterthur,052 212 15 48,7,Winterthur,88,POINT (2695571.947076847 1261163.627395159),2695571.947076847,1261163.6273951589
Convita Bethanien,Gladbachstrasse 97,8044,Zürich,044 268 78 00,19,Zürich,89,POINT (2684392.125747371 1248210.929579771),2684392.1257473705,1248210.9295797711
Wohn- und Pflegeheim Kilchberg,Grütstrasse 60,8802,Kilchberg,044 728 65 90,22,Horgen,90,POINT (2682972.127763203 1241600.896700001),2682972.1277632033,1241600.8967000013
Alters- und Gesundheitszentrum Dietikon - Pflegewohnung,Oberdorfstrasse 4,8953,Dietikon,044 746 96 96,10,Dietikon,91,POINT (2672541.743082435 1250641.194712206),2672541.7430824353,1250641.1947122065
Emilienheim für ältere Blinde und Sehbehinderte,Stockenstrasse 22,8802,Kilchberg,044 715 41 53,25,Horgen,92,POINT (2683034.644272557 1242601.154104734),2683034.6442725565,1242601.154104734
VitaFutura Pflegezentrum - VitaFutura Pflegewohnung Gries,Feldhofstrasse 31,8604,Volketswil,043 399 36 00,9,Uster,93,POINT (2694010.616210154 1249294.058735608),2694010.6162101543,1249294.0587356084
Pflegeheim Drusberg,Drusbergstrasse 96,8053,Zürich,044 381 59 30,17,Zürich,94,POINT (2686635.467136111 1245534.581002527),2686635.467136111,1245534.5810025267
Senevita Limmatfeld,Limmatfeldstrasse 5,8953,Dietikon,044 744 92 00,77,Dietikon,95,POINT (2673057.759131485 1251375.943333972),2673057.759131485,1251375.943333972
Pflegewohnung Töss II,Schlosstalstrasse 11,8400,Winterthur,052 212 15 48,7,Winterthur,96,POINT (2695604.520955751 1261127.500244871),2695604.5209557507,1261127.5002448712
Wohn- und Pflegezentrum Sonnegg,Sihlwaldstrasse 2,8135,Langnau a. A.,044 714 74 74,68,Horgen,97,POINT (2682815.533157605 1237820.54803852),2682815.533157605,1237820.5480385202
Pflegezentrum Eulachtal,Vordergasse 3,8353,Elgg,052 368 51 11,68,Winterthur,98,POINT (2707525.737724758 1261036.378185979),2707525.737724758,1261036.378185979
Almacasa Oberengstringen,Zürcherstrasse 70,8102,Oberengstringen,043 544 22 22,30,Dietikon,99,POINT (2677921.640469173 1251160.5760494),2677921.640469173,1251160.5760494
Pflegeheim Drusberg - Aussenstation Pflegeheim Drusberg,Drusbergstrasse 68,8053,Zürich,044 381 59 30,5,Zürich,100,POINT (2686467.51930113 1245523.931842032),2686467.5193011295,1245523.9318420321
Pflegewohnung Weitblick,Wässerwiesenstrasse 90,8408,Winterthur,052 222 72 30,12,Winterthur,101,POINT (2693742.24006009 1263351.623638616),2693742.2400600896,1263351.6236386164
Alterszentrum Im Wisli 20,Im Wisli 20,8805,Richterswil,043 888 16 16,57,Horgen,102,POINT (2696432.325576393 1228768.482711323),2696432.325576393,1228768.4827113233
Pflegezentrum Spital Limmattal,Urdorferstrasse 100,8952,Schlieren,044 733 24 17,126,Dietikon,103,POINT (2674949.897288959 1249649.09848089),2674949.8972889585,1249649.09848089
Pflegezentrum Eulachtal - Lichtblick,Mühlegasse 8,8353,Elgg,052 368 51 11,15,Winterthur,104,POINT (2707504.780555263 1261118.791416781),2707504.780555263,1261118.7914167815
Reformiertes Alterswohnheim Enge,Bürglistrasse 7,8002,Zürich,044 344 32 25,64,Zürich,105,POINT (2682400.235211276 1246411.630951015),2682400.235211276,1246411.6309510146
Pflegewohnungen Wülflingen I und II,Weststrasse 148/150,8408,Winterthur,052 212 15 48,14,Winterthur,106,POINT (2695270.758779897 1262956.635980354),2695270.758779897,1262956.6359803544
Alterszentrum Im Wisli 22,Im Wisli 22,8805,Richterswil,043 888 16 16,8,Horgen,107,POINT (2696488.535592163 1228746.738005131),2696488.535592163,1228746.7380051306
Pflegewohnung Mühleacker,Mühleackerstrasse 15,8952,Schlieren,044 730 16 44,9,Dietikon,108,POINT (2676072.671665668 1249712.506547794),2676072.671665668,1249712.5065477942
Pflegewohnung Giardino,Feldstrasse 8,8952,Schlieren,044 731 01 13,9,Dietikon,109,POINT (2676033.181008724 1250778.912408834),2676033.1810087245,1250778.912408834
Pflegewohnung Bachstrasse,Bachstrasse 1,8952,Schlieren,044 738 15 18,9,Dietikon,110,POINT (2675870.126684789 1250143.992833276),2675870.126684789,1250143.9928332763
Alterszentrum Sandbühl,Färberhüslistrasse 9,8952,Schlieren,044 732 25 25,84,Dietikon,111,POINT (2675033.123161799 1249768.799859979),2675033.123161799,1249768.799859979
Pflege-Wohn-Heim Smaily,Obere Bachstrasse 7a,8952,Schlieren,076 427 66 56,11,Dietikon,112,POINT (2675858.169050619 1249980.693096407),2675858.169050619,1249980.6930964072
Pflegezentrum Im Spilhöfler,Im Spilhöfler 2,8142,Uitikon,044 200 17 50,27,Dietikon,113,POINT (2676803.050708892 1247056.500598223),2676803.050708892,1247056.5005982227
Alterszentrum Weihermatt,Weihermattstrasse 44,8902,Urdorf,044 735 56 56,91,Dietikon,114,POINT (2674505.293316736 1248269.670016908),2674505.2933167364,1248269.670016908
Seniorenzentrum Im Morgen,Püntenstrasse 6,8104,Weiningen,044 752 17 17,90,Dietikon,115,POINT (2675334.503399802 1252322.95406493),2675334.5033998024,1252322.9540649296
Tertianum Am Rietpark,Brandstrasse 3,8952,Schlieren,044 388 19 41,30,Dietikon,116,POINT (2676121.480840982 1250535.279443176),2676121.480840982,1250535.2794431762
Pflegewohnung Bäretswil,Kirchstrasse 4,8344,Bäretswil,043 833 40 50,22,Hinwil,117,POINT (2707142.338012683 1243878.349541325),2707142.3380126827,1243878.3495413251
Pflegewohnung Erspel,Dorfstrasse 14,8608,Bubikon,055 243 34 70,11,Hinwil,118,POINT (2704547.417050791 1236335.542286996),2704547.417050791,1236335.5422869958
Pflegewohnung Park Schönegg,Spitalstrasse 13,8630,Rüti,055 260 12 77,8,Hinwil,119,POINT (2706578.527379998 1235223.677907877),2706578.5273799975,1235223.6779078767
Pflegewohnung Bruggacher,Werkstrasse 4,8630,Rüti,055 260 14 28,8,Hinwil,120,POINT (2706912.64799209 1235078.419758751),2706912.6479920903,1235078.4197587513
Alters- und Pflegeheim Sunnegarte,Bürgstrasse 5,8608,Bubikon,055 253 01 11,59,Hinwil,121,POINT (2704130.946046818 1236002.360635845),2704130.946046818,1236002.360635845
"GEEREN - Haus für Betreuung, Pflege und Wohnen",Alte Fistelstrasse 73,8497,Fischenthal,055 265 65 65,29,Hinwil,122,POINT (2711997.616742668 1243010.712828868),2711997.6167426677,1243010.7128288683
Alters- und Pflegeheim Rosengarten,Laufenbachstrasse 21,8625,Gossau,044 936 10 27,77,Hinwil,123,POINT (2699792.062915159 1240341.306110368),2699792.0629151594,1240341.3061103683
Pflegeheim Sonnhalde,Gerbistrasse,8627,Grüningen,044 936 61 61,320,Hinwil,124,POINT (2700054.374471015 1237413.896845807),2700054.374471015,1237413.8968458066
Alters- und Pflegeheim Hinwil,Dürntnerstrasse 12,8340,Hinwil,044 938 32 32,120,Hinwil,125,POINT (2706125.265487493 1239830.490496765),2706125.265487493,1239830.490496765
Alters- und Pflegeheim Grüneck,Brüschägertenweg 14,8626,Ottikon-Gossau,044 935 35 94,34,Hinwil,126,POINT (2702554.819657961 1239028.972280731),2702554.819657961,1239028.9722807314
Alterszentrum Breitenhof,Breitenhofstrasse 12,8630,Rüti,055 250 75 75,97,Hinwil,127,POINT (2706693.546378173 1234675.972536883),2706693.5463781734,1234675.972536883
Altersheim Haltberg (nicht auf Pflegeheimliste),Haltbergstrasse 32,8630,Rüti,055 240 18 18,7,Hinwil,128,POINT (2707287.686563476 1235613.464297177),2707287.6865634765,1235613.4642971773
Vivazzo Stiftung (Invalideneinrichtung mit Pflegebetten),Joweidzentrum 1,8630,Rüti,055 251 04 00,NA,Hinwil,129,POINT (2707052.083753995 1235467.145397574),2707052.083753995,1235467.1453975742
Vivazzo Stiftung (Invalideneinrichtung mit Pflegebetten) - Vivazzo Wohnhaus Birkenhof,Wisshaldenstrasse 7,8633,Wolfhausen,055 251 04 20,31,Hinwil,130,POINT (2703109.756384956 1235207.011120619),2703109.756384956,1235207.0111206195
Wohnheim Sandbüel,Kirchenrainstrasse 6,8632,Tann,055 240 22 64,48,Hinwil,131,POINT (2706823.642143364 1235560.838978579),2706823.6421433636,1235560.838978579
Alters- und Pflegeheim Nauengut,Knecht-Wethli-Weg 3,8630,Tann-Dürnten,055 250 81 11,50,Hinwil,132,POINT (2707168.039547097 1236814.116074526),2707168.0395470974,1236814.1160745255
Alters- und Pflegeheim Tabor,Zum Tabor 2,8636,Wald,055 256 30 00,118,Hinwil,133,POINT (2711263.532789615 1236505.357852405),2711263.5327896154,1236505.3578524047
Altersheim Drei Tannen,Im Sack,8636,Wald,055 256 14 14,62,Hinwil,134,POINT (2711558.474463549 1237654.998241394),2711558.474463549,1237654.9982413938
Pflegezentrum Wald,Aslystrasse 16,8636,Wald,055 256 11 11,68,Hinwil,135,POINT (2711242.974832252 1237305.024550747),2711242.974832252,1237305.024550747
Tertianum Grünegg,Haselstudstrasse 12,8636,Wald,055 256 78 78,53,Hinwil,136,POINT (2711878.422694183 1236817.950236207),2711878.4226941834,1236817.9502362066
Alterswohnheim Am Wildbach,Spitalstrasse 22,8620,Wetzikon,044 933 25 25,176,Hinwil,137,POINT (2702727.698577105 1241915.346024219),2702727.698577105,1241915.3460242192
Alterswohnheim Am Wildbach - Aussenwohngruppe Sonnenblume,Spitalstrasse 30,8620,Wetzikon,044 933 25 25,9,Hinwil,138,POINT (2702747.774853391 1241991.934880673),2702747.774853391,1241991.934880673
Alterswohnheim Am Wildbach - Aussenwohngruppe Haus Lärche,Alte Notariatsstrasse 7,8620,Wetzikon,044 933 25 25,10,Hinwil,139,POINT (2702671.211428263 1241991.718065664),2702671.2114282628,1241991.7180656642
Sonnweid das Heim,Bachtelstrasse 68,8620,Wetzikon,044 931 59 31,185,Hinwil,140,POINT (2703736.026904293 1242290.886178951),2703736.026904293,1242290.8861789508
IWAZ - Schweiz. Wohn- und Arbeitszentrum für Mobilitätsbehinderte (Invalideneinrichtung mit Pflegebetten),Neugrundstrasse 4,8620,Wetzikon,044 933 23 23,63,Hinwil,141,POINT (2701617.062246683 1242431.646803624),2701617.0622466826,1242431.6468036245
Pflegewohnung Rägeboge-Wohne 1,Bahnhofstrasse 203,8620,Wetzikon,044 930 30 33,7,Hinwil,142,POINT (2703153.006897764 1243035.510371399),2703153.006897764,1243035.5103713989
Pflegewohnung Rägeboge-Wohne 2,Binzackerstrasse 30,8620,Wetzikon,044 930 30 33,10,Hinwil,143,POINT (2702993.838674416 1243165.90035867),2702993.8386744163,1243165.9003586704
Pflegewohnung Grüningen,Niderwiesstrasse 6,8627,Grüningen,044 935 11 06,15,Hinwil,144,POINT (2699869.968090451 1237474.889706461),2699869.968090451,1237474.889706461
Oase Wetzikon,Wydumstrsse 20,8620,Wetzikon,044 818 65 65,15,Hinwil,145,POINT (2702470.350779202 1242787.40583543),2702470.3507792023,1242787.4058354297
Sihlsana AG Pflegezentrum,Badstrasse 4,8134,Adliswil,044 711 97 97,84,Horgen,146,POINT (2682736.515103452 1240802.924236073),2682736.5151034524,1240802.9242360732
Sihlsana AG Pflegezentrum - Sihlsana AG Pflegewohngruppe Tal,Badstrasse 6A,8134,Adliswil,044 711 97 97,10,Horgen,147,POINT (2682724.009159703 1240707.929122718),2682724.009159703,1240707.9291227183
Sihlsana AG Pflegezentrum - Sihlsana AG Pflegewohngruppe Mauersegler,Rütistrasse 47,8134,Adliswil,044 711 84 50,17,Horgen,148,POINT (2682432.992675407 1240006.377892185),2682432.9926754073,1240006.3778921855
Sihlsana AG Pflegezentrum - Sihlsana AG Pflegewohngruppe Wolfhaus,Kronenstrasse 6,8134,Adliswil,044 710 99 29,9,Horgen,149,POINT (2682256.611409654 1240688.424778203),2682256.6114096544,1240688.424778203
Sihlsana AG Pflegezentrum - Sihlsana AG Pflegewohngruppe Soodmatte,Soodstrasse 46,8134,Adliswil,044 709 00 10,9,Horgen,150,POINT (2682091.668755201 1241404.024412637),2682091.6687552007,1241404.0244126366
Altersheim Im Ris,Schwarzbächlistrasse 1,8041,Zürich,044 711 90 00,88,Horgen,151,POINT (2681209.978045576 1241857.907423762),2681209.9780455763,1241857.907423762
Alters- und Pflegeheim Au,Schellerstrasse 5,8804,Au,043 833 28 88,20,Horgen,152,POINT (2691898.564338413 1233330.10039107),2691898.5643384126,1233330.1003910697
Wohn- und Pflegeheim Spyrigarten,Bergstrasse 1a,8816,Hirzel,044 729 80 32,11,Horgen,153,POINT (2688446.751978393 1230293.044491094),2688446.751978393,1230293.0444910936
Alters- und Pflegeheim Stapfer Stiftung,Lindenstrasse 1,8810,Horgen,044 725 41 63,58,Horgen,154,POINT (2687937.991614772 1234933.664698321),2687937.991614772,1234933.664698321
Alterszentrum Haus Tabea,Schärbächlistrasse 2,8810,Horgen,044 718 44 44,160,Horgen,155,POINT (2688020.515913996 1234847.834915885),2688020.5159139964,1234847.8349158852
Widmerheim,Amalie Widmer-Strasse 11,8810,Horgen,043 336 44 44,114,Horgen,156,POINT (2686705.481034538 1235869.682160293),2686705.4810345382,1235869.6821602932
Tödiheim,Tödistrasse 20,8810,Horgen,044 718 11 00,60,Horgen,157,POINT (2686699.109477711 1235209.383280854),2686699.1094777114,1235209.3832808544
Pflegewohngruppe Strickler,Einsiedlerstrasse 149,8810,Horgen,044 718 11 00,11,Horgen,158,POINT (2687365.389938112 1234880.524540068),2687365.389938112,1234880.524540068
Alters- und Pflegeheim TERTIANUM Residenz Horgen,Asylstrasse 18,8810,Horgen,043 244 16 16,24,Horgen,159,POINT (2687025.890142412 1235362.66145795),2687025.890142412,1235362.6614579496
Pflegezentrum Eulachtal - Zentrum Sonne,Elsauerstrasse 22,8352,Elsau-Räterschen,052 368 51 11,14,Winterthur,160,POINT (2702419.509155182 1261796.829970008),2702419.5091551817,1261796.8299700082
Seniorenzentrum Vivale Neuhegi,Ohrbühlstrasse 65,8409,Winterthur,044 233 30 52,121,Winterthur,161,POINT (2700207.662078803 1262194.77821324),2700207.662078803,1262194.7782132397
Pflegezentrum Eulachtal - Staub/Kaiser-Haus,Halbiacker 3,8352,Elsau-Räterschen,052 368 51 11,28,Winterthur,162,POINT (2701279.465974853 1262107.815156528),2701279.4659748534,1262107.8151565278
Tertianum Etzelblick,Haslenweg 8,8833,Samstagern,044 787 47 11,30,Horgen,163,POINT (2693887.600275089 1227823.345035844),2693887.6002750886,1227823.3450358438
AbeggHuus,Alte Landstrasse 68,8803,Rüschlikon,044 704 61 71,53,Horgen,164,POINT (2684306.45094052 1240143.67265904),2684306.4509405196,1240143.6726590402
EPI Wohnwerk c/o Schweizerisches Epilepsie-Zentrum - Heimbereich (Invalideneinrichtung mit Pflegebetten),Bleulerstrasse 60,8008,Zürich,044 387 61 11,171,Zürich,165,POINT (2685434.134469663 1244804.211079404),2685434.134469663,1244804.2110794042
Alterszentren der Stadt Zürich - Alterszentrum Bullinger Hardau,Bullingerstrasse 69,8004,Zürich,044 412 47 44,113,Zürich,166,POINT (2680951.25654744 1248338.522686347),2680951.25654744,1248338.5226863471
Pflegezentrum Eulachtal - Zentrum Wiesental,Schulstrasse 6b,8542,Wiesendangen,052 368 51 11,18,Winterthur,167,POINT (2701345.242669912 1264397.708908539),2701345.2426699116,1264397.708908539
Pflegezentrum Nidelbad,Eggrainweg 3,8803,Rüschlikon,044 724 74 11,95,Horgen,168,POINT (2683920.243070824 1240087.236489081),2683920.2430708236,1240087.2364890806
Alterszentren der Stadt Zürich - Alterszentrum Bürgerasyl-Pfrundhaus,Leonhardstrasse 18,8001,Zürich,044 412 47 44,107,Zürich,169,POINT (2683619.592168184 1247973.978504509),2683619.5921681845,1247973.9785045092
Wohnzentrum Frankental (Invalideneinrichtung mit Pflegebetten) - Haus 410,Limmattalstrasse 410,8049,Zürich,043 211 45 00,18,Zürich,170,POINT (2678523.359628191 1251044.062559973),2678523.359628191,1251044.062559973
Zentrum Rämismühle,Mühlestrasse 8,8487,Rämismühle,052 396 44 44,136,Winterthur,171,POINT (2704779.084436381 1255330.563843058),2704779.0844363812,1255330.5638430584
Wohngruppe Drei Eichen,Stationsstrasse 32,8833,Samstagern,043 888 16 00,12,Horgen,172,POINT (2693962.572117389 1227600.381830918),2693962.5721173887,1227600.381830918
Alterszentren der Stadt Zürich - Alterszentrum Balderen,Klebestrasse 2,8041,Zürich,044 412 47 44,32,Zürich,173,POINT (2681200.717262857 1242294.595443594),2681200.7172628567,1242294.595443594
Wohnzentrum Frankental (Invalideneinrichtung mit Pflegebetten) - Haus 414,Limmattalstrasse 414,8049,Zürich,043 211 45 00,22,Zürich,174,POINT (2678523.359628191 1251044.062559973),2678523.359628191,1251044.062559973
Alterszentrum Im Spiegel,Im Spiegel 5,8486,Rikon im Tösstal,052 397 07 70,50,Winterthur,175,POINT (2702616.987462123 1255864.429958712),2702616.987462123,1255864.429958712
Altersheim Stollenweid,Stollenweid 2,8824,Schönenberg,043 888 40 80,44,Horgen,176,POINT (2690866.917742019 1228066.364845523),2690866.9177420186,1228066.3648455234
Alterszentren der Stadt Zürich - Alterszentrum Doldertal,Ebelstrasse 29,8032,Zürich,044 412 47 44,28,Zürich,177,POINT (2685179.771950732 1247688.328150696),2685179.771950732,1247688.3281506961
Alterszentren der Stadt Zürich - Alterszentrum Dorflinde,Dorflindenstrasse 4,8050,Zürich,044 412 47 44,120,Zürich,178,POINT (2683858.394612601 1251395.661584316),2683858.394612601,1251395.6615843158
Alterszentren der Stadt Zürich - Alterszentrum Grünau,Bändlistrasse 10,8064,Zürich,044 412 47 44,83,Zürich,179,POINT (2679362.338449674 1249919.331576477),2679362.3384496737,1249919.3315764766
Alterszentren der Stadt Zürich - Alterszentrum Herzogenmühle,Glattstegweg 7,8051,Zürich,044 412 47 44,74,Zürich,180,POINT (2685647.165295382 1251313.793837847),2685647.1652953825,1251313.793837847
Alterszentren der Stadt Zürich - Alterszentrum Klus Park,Asylstrasse 130,8032,Zürich,044 412 47 44,101,Zürich,181,POINT (2685047.246889587 1246589.372087854),2685047.2468895866,1246589.372087854
Alterszentren der Stadt Zürich - Alterszentrum Langgrüt,Langgrütstrasse 51,8047,Zürich,044 412 47 44,109,Zürich,182,POINT (2680137.806701418 1247381.622199391),2680137.8067014185,1247381.6221993908
Alterszentren der Stadt Zürich - Alterszentrum Laubegg,Hegianwandweg 16,8045,Zürich,044 412 47 44,74,Zürich,183,POINT (2681198.087909896 1245780.493655004),2681198.0879098964,1245780.493655004
Alterszentren der Stadt Zürich - Alterszentrum Limmat,Limmatstrasse 186,8005,Zürich,044 412 47 44,107,Zürich,184,POINT (2682419.483230564 1249032.424653452),2682419.4832305643,1249032.4246534517
Alterszentren der Stadt Zürich - Alterszentrum Kalchbühl,Kalchbühlstrasse 118,8038,Zürich,044 412 47 44,51,Zürich,185,POINT (2682817.758323616 1243218.267472168),2682817.7583236163,1243218.2674721684
Alterszentren der Stadt Zürich - Alterszentrum Mathysweg,Altstetterstrasse 267,8047,Zürich,044 412 47 44,84,Zürich,186,POINT (2678904.497318933 1248226.450900425),2678904.497318933,1248226.450900425
Alterszentren der Stadt Zürich - Alterszentrum Mittelleimbach,Leimbachstrasse 210,8041,Zürich,044 412 47 44,109,Zürich,187,POINT (2681354.05469617 1242222.980684918),2681354.0546961697,1242222.9806849181
Alterszentren der Stadt Zürich - Alterszentrum Oberstrass,Langensteinenstrasse 40,8057,Zürich,044 412 47 44,96,Zürich,188,POINT (2683686.042891493 1249783.801026344),2683686.042891493,1249783.8010263436
Alterszentren der Stadt Zürich - Alterszentrum Rebwies,Schützenstrasse 31,8702,Zollikon,044 412 47 44,90,Meilen,189,POINT (2686649.232775833 1244651.185083348),2686649.2327758325,1244651.185083348
Alterszentren der Stadt Zürich - Alterszentrum Rosengarten,Aathalstrasse 21,8610,Uster,044 412 47 44,89,Uster,190,POINT (2697542.571437473 1244728.200084609),2697542.571437473,1244728.200084609
Alterszentren der Stadt Zürich - Alterszentrum Selnau,Selnaustrasse 18,8002,Zürich,044 412 47 44,27,Zürich,191,POINT (2682630.594290951 1247193.850216297),2682630.5942909513,1247193.8502162972
Alterszentren der Stadt Zürich - Alterszentrum Stampfenbach,Lindenbachstrasse 1,8006,Zürich,044 412 47 44,96,Zürich,192,POINT (2683087.08838142 1249026.054350129),2683087.08838142,1249026.0543501293
Alterszentren der Stadt Zürich - Alterszentrum Sydefädeli,Hönggerstrasse 119,8037,Zürich,044 412 47 44,96,Zürich,193,POINT (2681467.089020802 1249929.341696969),2681467.0890208017,1249929.3416969685
Alterszentren der Stadt Zürich - Alterszentrum Trotte,Trottenstrasse 76,8037,Zürich,044 412 47 44,93,Zürich,194,POINT (2681526.654994773 1250035.045452513),2681526.6549947727,1250035.0454525133
Alterszentren der Stadt Zürich - Alterszentrum Wildbach,Wildbachstrasse 11,8008,Zürich,044 412 47 44,86,Zürich,195,POINT (2684523.772430094 1245782.626097043),2684523.772430094,1245782.6260970426
Alterszentren der Stadt Zürich - Alterszentrum Wolfswinkel,Wolfswinkel 9,8046,Zürich,044 412 47 44,106,Zürich,196,POINT (2681065.578012177 1253113.393260045),2681065.578012177,1253113.3932600447
Pflegezentren der Stadt Zürich - Pflegezentrum Bachwiesen,Flurstrasse 130,8047,Zürich,044 412 47 44,151,Zürich,197,POINT (2679176.897223757 1248030.972570414),2679176.897223757,1248030.9725704142
Pflegezentren der Stadt Zürich - Pflegewohngruppe Sunnige Hof,Else-Züblin-Strasse 48,8047,Zürich,044 412 47 44,8,Zürich,198,POINT (2679194.345148078 1247912.482665762),2679194.3451480777,1247912.4826657618
Pflegezentren der Stadt Zürich - Pflegezentrum Bombach,Limmattalstrasse 371,8049,Zürich,044 412 47 44,155,Zürich,199,POINT (2678879.075976834 1250897.342383451),2678879.075976834,1250897.3423834506
Pflegezentren der Stadt Zürich - Pflegezentrum Entlisberg,Paradiesstrassse 45,8038,Zürich,044 412 47 44,300,Zürich,200,POINT (2682260.274553158 1243200.932357479),2682260.2745531583,1243200.932357479
Pflegezentren der Stadt Zürich - Pflegewohngruppe LieniHof,Heinrich-Federer-Strasse 22,8038,Zürich,044 412 47 44,11,Zürich,201,POINT (2682526.947893699 1243377.303676938),2682526.947893699,1243377.3036769382
Pflegezentren der Stadt Zürich - Pflegezentrum Gehrenholz,Sieberstrasse 22,8055,Zürich,044 412 47 44,120,Zürich,202,POINT (2680965.298532644 1246466.612527638),2680965.2985326443,1246466.6125276377
Pflegezentren der Stadt Zürich - Pflegezentrum Käferberg,Emil-Klöti-Strasse 25,8037,Zürich,044 412 47 44,225,Zürich,203,POINT (2681311.765953449 1250347.931671602),2681311.765953449,1250347.931671602
Pflegezentren der Stadt Zürich - Pflegezentrum Mattenhof,Helen-Keller-Strasse 12,8051,Zürich,044 412 47 44,245,Zürich,204,POINT (2687231.878264422 1250535.972889449),2687231.8782644216,1250535.972889449
Pflegezentren der Stadt Zürich - Pflegezentrum Riesbach,Witellikerstrasse 19,8008,Zürich,044 412 47 44,84,Zürich,205,POINT (2685998.714439282 1245248.050429365),2685998.7144392817,1245248.0504293647
Pflegezentren der Stadt Zürich - Pflegezentrum Witikon,Kienastenwiesweg 2,8053,Zürich,044 412 47 44,185,Zürich,206,POINT (2687887.709893952 1245577.59170072),2687887.709893952,1245577.59170072
Pflegewohngruppen PZZ - Pflegewohngruppe Grünmatt,Grünmattstrasse 4,8055,Zürich,044 412 47 44,8,Zürich,207,POINT (2680442.406986734 1246276.341159431),2680442.4069867344,1246276.341159431
Pflegewohngruppen PZZ - Pflegewohngruppe Hausäcker,Hausäcker 4,8047,Zürich,044 412 47 44,10,Zürich,208,POINT (2678433.317692573 1249326.1103397),2678433.317692573,1249326.1103397005
Pflegewohngruppen PZZ - Pflegewohngruppe Felsenrain,Neubrunnenstrasse 8,8050,Zürich,044 412 47 44,14,Zürich,209,POINT (2683446.02532027 1252452.44335625),2683446.0253202696,1252452.4433562504
Pflegewohngruppen PZZ - Pflegewohngruppen Köschenrüti I u. Köschenrüti II,Traktorenstrasse 4,8052,Zürich,044 412 47 44,20,Zürich,210,POINT (2682947.389250751 1253709.153251886),2682947.3892507507,1253709.1532518857
Pflegewohngruppen PZZ - Pflegewohngruppe Wolfswinkel,Wolfswinkel 14,8046,Zürich,044 412 47 44,10,Zürich,211,POINT (2681173.09578258 1253134.024017112),2681173.0957825803,1253134.0240171119
Pflegewohngruppen PZZ - Triemlipark I,Schweighofstrasse 425,8055,Zürich,044 412 47 44,8,Zürich,212,POINT (2680264.954147229 1246896.651606717),2680264.9541472294,1246896.6516067171
Pflegewohngruppen PZZ - Triemlipark II,Birmensdorferstrasse 437,8055,Zürich,044 412 47 44,10,Zürich,213,POINT (2680227.006989924 1246870.023160889),2680227.0069899242,1246870.0231608888
Pflegewohngruppen PZZ - Pflegewohngruppen Brunnepark I und Brunnepark II,Künzlistrasse 15a,8057,Zürich,044 412 47 44,24,Zürich,214,POINT (2682649.814430851 1251083.301354346),2682649.8144308515,1251083.301354346
Pflegewohnung A-Park,Albisriederstrasse 342,8047,Zürich,043 931 77 60,10,Zürich,215,POINT (2679141.078807626 1247752.231174934),2679141.078807626,1247752.2311749337
Pflegewohnung Sonnengarten,Birmensdorferstrasse 538,8055,Zürich,044 462 94 84,9,Zürich,216,POINT (2679632.418806204 1246819.272593803),2679632.418806204,1246819.2725938028
Pflegewohnung Eyhof,"Eyhof 18, Gebäude C",8047,Zürich,044 462 29 02,11,Zürich,217,POINT (2679400.631581611 1247326.544642178),2679400.6315816115,1247326.544642178
Pflegewohnung Oasi,Stauffacherstrasse 220,8004,Zürich,043 243 98 23,9,Zürich,218,POINT (2681512.268164137 1248176.560269366),2681512.2681641374,1248176.5602693663
Pflegewohnung Oasi due,Albert Schneider-Weg 25,8047,Zürich,043 818 61 46,8,Zürich,219,POINT (2679822.828496909 1247700.934485482),2679822.8284969092,1247700.9344854823
Pflegewohnung Schneebeliweg,Schneebeliweg 1+3,8048,Zürich,044 491 04 41,13,Zürich,220,POINT (2678851.806610181 1248714.744138403),2678851.8066101815,1248714.7441384029
Alters- und Pflegeresidenz Arkadia,Südstrasse 24,8034,Zürich,044 388 70 30,76,Zürich,221,POINT (2684948.721808122 1245437.832237855),2684948.7218081225,1245437.832237855
Quartieraltersheim Aussersihl,Engelstrasse 63,8004,Zürich,044 298 60 60,48,Zürich,222,POINT (2681943.820377616 1247911.843427209),2681943.8203776157,1247911.843427209
Bellevue Residenz,Klosbachstrasse 155,8032,Zürich,044 251 74 45,129,Zürich,223,POINT (2685007.828319243 1247214.479733784),2685007.8283192427,1247214.4797337838
Alters- und Pflegeheim Birkenrain,Forchstrasse 366,8008,Zürich,044 206 47 00,42,Zürich,224,POINT (2686079.501173795 1245148.188427033),2686079.501173795,1245148.188427033
Seniorama Burstwiese,Burstwiesenstrasse 20 u. 22,8055,Zürich,044 454 45 01,116,Zürich,225,POINT (2680688.109984178 1247191.122151988),2680688.1099841776,1247191.1221519879
Alterswohngemeinschaft Freiblick - Pflegewohnung,Rütihofstrasse 48,8049,Zürich,044 350 26 70,8,Zürich,226,POINT (2678349.244745275 1251979.917080864),2678349.2447452755,1251979.9170808643
freya - Pflegewohngruppe am Letzigraben,Letzigraben 23,8003,Zürich,044 242 10 90,17,Zürich,227,POINT (2680342.995086992 1248249.001256054),2680342.9950869917,1248249.0012560543
Pflegezentrum Lindehus,Lindenweg 2,8488,Turbenthal,052 396 24 24,50,Winterthur,228,POINT (2706334.709105769 1254919.068137716),2706334.709105769,1254919.0681377158
Krankenstation Friesenberg,Borrweg 76,8055,Zürich,044 463 77 17,24,Zürich,229,POINT (2680563.047308792 1246137.03794509),2680563.047308792,1246137.0379450899
Johann Heinrich Ernst-Stiftung,Morgentalstrasse 90,8038,Zürich,044 482 45 40,24,Zürich,230,POINT (2681974.468093989 1244200.255247758),2681974.468093989,1244200.2552477585
Pflegezentrum Gorwiden,Gorwiden 2,8057,Zürich,044 315 11 11,106,Zürich,231,POINT (2683951.374936285 1250945.494395732),2683951.374936285,1250945.4943957317
Alterszentrum Serata,Tischenloostrasse 55,8800,Thalwil,044 723 71 71,114,Horgen,232,POINT (2685612.931948549 1237741.742490462),2685612.9319485486,1237741.7424904625
Alterszentrum im Geeren,Kirchhügelstrasse 5,8472,Seuzach,052 320 11 11,134,Winterthur,233,POINT (2697043.566391261 1265752.171073203),2697043.5663912613,1265752.1710732034
Alters- und Pflegeheim Grünhalde,Grünhaldestrasse 19,8050,Zürich,043 336 00 20,90,Zürich,234,POINT (2683602.737436 1252382.664480244),2683602.737436,1252382.664480244
Stiftung Schloss Turbenthal (Invalideneinrichtung mit Pflegebetten),Feldstrasse 1,8488,Turbenthal,052 396 26 26,14,Winterthur,235,POINT (2706419.917169925 1254880.576071958),2706419.9171699253,1254880.5760719583
Alterswohnheim Oeggisbüel,Asylstrasse 8,8800,Thalwil,044 723 75 75,81,Horgen,236,POINT (2685594.893866623 1237887.893356076),2685594.8938666233,1237887.8933560755
Hauserstiftung Höngg - Wohnen im Alter,Hohenklingenstrasse 40,8049,Zürich,044 344 20 50,40,Zürich,237,POINT (2679448.892071753 1250698.951531508),2679448.892071753,1250698.9515315082
Provivatis - Wohnen am Goldenberg,Pflanzschulstrasse 52,8400,Winterthur,052 242 82 65,26,Winterthur,238,POINT (2697998.808433628 1261962.857729332),2697998.8084336277,1261962.8577293323
Wohnzentrum Fuhr,Fuhrstrasse 42,8820,Wädenswil,044 780 39 39,76,Horgen,239,POINT (2692807.710467784 1231732.112841854),2692807.710467784,1231732.1128418536
Alters- und Pflegezentrum Herrenbergli,Am Suteracher 65,8048,Zürich,044 434 80 70,97,Zürich,240,POINT (2677748.407071901 1249419.603035505),2677748.407071901,1249419.603035505
Alters- und Pflegeheim Hugo Mendel-Stiftung,Billeterstrasse 10,8044,Zürich,044 266 26 00,44,Zürich,241,POINT (2685159.199617345 1248249.720240211),2685159.199617345,1248249.7202402106
Kranken- und Pflegeheim Lindenegg,Nordstrasse 70,8006,Zürich,043 300 55 66,68,Zürich,242,POINT (2682965.319995612 1249061.22297577),2682965.3199956124,1249061.2229757702
Tertianum Letzipark,Hohlstrasse 459,8028,Zürich,044 542 27 27,74,Zürich,243,POINT (2680027.578412895 1249067.684214263),2680027.5784128946,1249067.6842142628
Mathilde Escher-Heim (Invalideneinrichtung mit Pflegebetten) - Wohngruppe 4,Lenggstrasse 60,8008,Zürich,044 389 62 00,6,Zürich,244,POINT (2685767.968279082 1245381.629042333),2685767.9682790823,1245381.629042333
Mathilde Escher-Heim (Invalideneinrichtung mit Pflegebetten) - Wohngruppe 5 und 6,Lengghalde 1,8008,Zürich,044 389 62 00,23,Zürich,245,POINT (2685766.123256828 1245323.538159128),2685766.123256828,1245323.5381591276
Wohnheim Mühlehalde - Bei Blindheit und Sehbehinderung,Witikonerstrasse 100,8032,Zürich,044 421 11 11,79,Zürich,246,POINT (2685723.459668135 1246097.393321218),2685723.459668135,1246097.3933212182
AVENTIN - Leben im  Alter,Minervastrasse 144,8032,Zürich,044 421 56 56,122,Zürich,247,POINT (2684661.259662303 1246370.061720886),2684661.259662303,1246370.0617208863
senevita Residenz Nordlicht,Birchstrasse 180 / Max-Bill-Platz,8050,Zürich,043 205 00 00,29,Zürich,248,POINT (2683024.614316044 1252017.892417768),2683024.6143160444,1252017.8924177682
Privat-Altersheim Perla Park,Freiestrasse 210,8032,Zürich,044 385 92 92,46,Zürich,249,POINT (2685168.115453182 1246159.414429191),2685168.115453182,1246159.4144291906
Tertianum Villa Böcklin,Böcklinstrasse 19,8032,Zürich,044 389 90 90,29,Zürich,250,POINT (2684755.809566504 1246518.046048889),2684755.809566504,1246518.0460488887
Tertianum Restelberg,Restelbergstrasse 108,8044,Zürich,044 350 44 11,14,Zürich,251,POINT (2684174.978048063 1248970.885248476),2684174.978048063,1248970.8852484757
"Riedhof, Leben und Wohnen im Alter",Riedhofweg 4,8049,Zürich,044 344 66 11,93,Zürich,252,POINT (2678901.129092509 1251418.242554691),2678901.129092509,1251418.2425546914
Alters- und Pflegeheim Römerhof,Asylstrasse 40,8032,Zürich,044 254 82 82,92,Zürich,253,POINT (2684639.87528167 1246969.523334189),2684639.87528167,1246969.5233341893
Alterspflegewohngruppe Salem,Hochstrasse 37,8044,Zürich,044 253 70 50,19,Zürich,254,POINT (2684153.106542179 1248290.484019094),2684153.1065421794,1248290.4840190944
TERTIANUM Residenz Im Brühl,Kappenbühlweg 11,8049,Zürich,044 344 43 43,30,Zürich,255,POINT (2679994.205263305 1250875.110817265),2679994.2052633045,1250875.1108172648
TERTIANUM Residenz Segeten,Carl Spitteler-Strasse 70,8053,Zürich,044 388 18 18,35,Zürich,256,POINT (2687337.827375149 1245600.262924538),2687337.8273751494,1245600.2629245382
Senioviva Oerlikon,Regensbergstrasse 165,8050,Zürich,044 466 88 88,45,Zürich,257,POINT (2683120.978071384 1251447.291690057),2683120.978071384,1251447.2916900571
Alters- und Pflegeheim Schmiedhof,Zweierstrasse 138,8003,Zürich,044 454 61 61,109,Zürich,258,POINT (2681628.399867517 1247249.606008187),2681628.3998675174,1247249.6060081874
Senioren-Zentrum SIKNA-Stiftung,Sallenbachstrasse 40,8055,Zürich,044 455 75 75,94,Zürich,259,POINT (2680037.847547749 1247017.834698194),2680037.8475477486,1247017.8346981944
Seniorenresidenz Spirgarten,Spirgartenstrasse 2,8048,Zürich,043 336 75 75,22,Zürich,260,POINT (2678972.260943684 1249077.294640121),2678972.260943684,1249077.294640121
Altersheim Haus St. Otmar,Minervastrasse 8,8032,Zürich,044 251 26 19,30,Zürich,261,POINT (2684127.000590456 1247104.156845606),2684127.000590456,1247104.1568456057
Alterszentrum St. Peter und Paul,Werdgässchen 15,8004,Zürich,044 296 11 11,84,Zürich,262,POINT (2682312.20939935 1247359.883644531),2682312.2093993495,1247359.8836445315
Alterswohnheim Studacker,Studackerstrasse 22,8038,Zürich,043 399 80 20,89,Zürich,263,POINT (2682600.990403234 1243621.278235901),2682600.9904032336,1243621.2782359007
Fachspital für Sozialmedizin und Abhängigkeitserkrankungen Sune-Egge - Pflegestation Sune-Egge,Konradstrasse 62,8005,Zürich,044 444 20 94/90,5,Zürich,264,POINT (2682729.63925976 1248456.34219361),2682729.6392597603,1248456.3421936103
Fachspital für Sozialmedizin und Abhängigkeitserkrankungen Sune-Egge - Pflegestation Sunegarte,Ober Halden 5,8132,Egg,044 444 20 94/90,15,Zürich,265,POINT (2694578.694013704 1240746.920085185),2694578.6940137036,1240746.9200851852
Tannenrauch - Altersgerechtes Wohnen Wollishofen,Mööslistrasse 12,8038,Zürich,044 485 48 48,95,Zürich,266,POINT (2682350.514582084 1244425.902261135),2682350.514582084,1244425.9022611354
Seniorama Im Tiergarten,Sieberstrasse 10,8055,Zürich,044 454 47 00,90,Zürich,267,POINT (2680925.366865022 1246545.930448705),2680925.366865022,1246545.9304487046
Seniorama Im Tiergarten - Seniorama Demenzwohngruppe,Friesenbergstrasse 125,8055,Zürich,044 454 47 00,13,Zürich,268,POINT (2680879.527896555 1246549.643249364),2680879.5278965547,1246549.6432493636
TERTIANUM Residenz Zürich Enge,Brandschenkestrasse 82,8002,Zürich,043 817 75 75,25,Zürich,269,POINT (2682153.049261043 1246725.514607642),2682153.0492610433,1246725.5146076423
oekas Wiesliacher,Wiesliacher 30,8053,Zürich,043 443 08 08,57,Zürich,270,POINT (2687642.226837354 1245487.480340461),2687642.226837354,1245487.4803404605
Wohnpflegeheim Häuptli,Dübendorferstrasse 9,8051,Zürich,044 325 38 00,18,Zürich,271,POINT (2685791.423438092 1250964.611213992),2685791.4234380918,1250964.611213992
Wohnpflegeheim Häuptli - Wohnheim Kull,Winterthurerstrasse 522,8051,Zürich,044 325 38 88,32,Zürich,272,POINT (2685578.26890561 1250946.754843866),2685578.26890561,1250946.7548438665
Wohnhaus Schörli,Schörlistrasse 11,8050,Zürich,044 325 38 70,12,Zürich,273,POINT (2684819.845274469 1251282.361087286),2684819.845274469,1251282.3610872864
Kompetenzzentrum f. pall. Pflege u. Medizin Lighthouse Zürich AG,Carmenstrasse 42,8032,Zürich,044 265 38 11,21,Zürich,274,POINT (2684973.499738242 1246869.91204384),2684973.4997382425,1246869.9120438402
Almacasa Friesenberg I,Schweighofstrasse 230,8045,Zürich,058 100 80 80,25,Zürich,275,POINT (2680676.94481799 1246125.991028755),2680676.94481799,1246125.991028755
Almacasa Friesenberg II,Friesenbergplatz 5,8045,Zürich,058 100 80 80,5,Zürich,276,POINT (2680715.070168281 1246104.402971534),2680715.0701682814,1246104.4029715336
Tertianum Etzelgut,Etzelstrasse 14,8038,Zürich,044 575 93 93,51,Zürich,277,POINT (2682581.765254995 1244327.968638282),2682581.7652549953,1244327.968638282
Pflege und Betreuung Casa Vivimus,Else-Züblin-Strasse 60,8047,Zürich,043 555 08 08,18,Zürich,278,POINT (2679244.01884832 1247843.144103457),2679244.0188483195,1247843.1441034565
Alterszentrum Adlergarten,Gärtnerstrasse 1,8402,Winterthur,052 267 43 10,191,Winterthur,279,POINT (2697835.166974004 1261510.53810499),2697835.1669740044,1261510.5381049898
Alterszentrum Neumarkt,Neumarkt 6,8400,Winterthur,052 267 36 00,70,Winterthur,280,POINT (2697056.740532418 1261687.421878022),2697056.7405324182,1261687.4218780224
Frohmatt - Haus Tal,Bürgerheimstrasse 8-12,8820,Wädenswil,044 789 21 11,18,Horgen,281,POINT (2692633.339433864 1231658.732688217),2692633.339433864,1231658.7326882167
Alterszentrum Brühlgut - Haupthaus Waldhofstrasse 1,Waldhofstrasse 1,8400,Winterthur,052 267 38 38,126,Winterthur,282,POINT (2696048.71946764 1261485.72991822),2696048.71946764,1261485.72991822
Alterszentrum Brühlgut - Residenz Waldhofstrasse 5,Waldhofstrasse 5,8400,Winterthur,052 267 38 38,33,Winterthur,283,POINT (2695971.944794428 1261486.570823827),2695971.944794428,1261486.570823827
Alterszentrum Oberi,Stadlerstrasse 162-164,8404,Winterthur,052 267 33 33,126,Winterthur,284,POINT (2699378.553734133 1263916.132493032),2699378.5537341335,1263916.1324930324
Frohmatt - Haus Berg,Bürgerheimstrasse 8-12,8820,Wädenswil,044 789 21 11,57,Horgen,285,POINT (2692633.339433864 1231658.732688217),2692633.339433864,1231658.7326882167
Betreute Wohngruppe Alterszentrum Oberi,Stadlerstrasse 162-164,8404,Winterthur,052 267 33 33,9,Winterthur,286,POINT (2699378.553734133 1263916.132493032),2699378.5537341335,1263916.1324930324
Frohmatt - Haus See,Bürgerheimstrasse 8-12,8820,Wädenswil,044 789 21 11,53,Horgen,287,POINT (2692633.339433864 1231658.732688217),2692633.339433864,1231658.7326882167
Alterszentrum Rosental,Rosentalstrasse 65,8400,Winterthur,052 267 37 37,108,Winterthur,288,POINT (2696738.462622508 1262979.327005544),2696738.4626225084,1262979.327005544
Alterszentrum Gehren,Im Spitzli 1,8703,Erlenbach,043 277 33 33,61,Meilen,289,POINT (2687412.49411684 1239500.500332574),2687412.49411684,1239500.5003325741
Modulbau Alterszentrum Adlergarten,Adlerstrasse 2,8400,Winterthur,052 267 43 10,12,Winterthur,290,POINT (2697747.055137293 1261544.480986505),2697747.0551372934,1261544.4809865053
Senevita Im Rebberg,Schulhausstrasse 44,8704,Herrliberg,044 915 80 50,57,Meilen,291,POINT (2688847.864686464 1238228.253256296),2688847.864686464,1238228.2532562956
Pflegewohngruppe Hegi GmbH,Gernstrasse 68,8409,Hegi,052 244 48 20,11,Winterthur,292,POINT (2700878.789539783 1262554.098207048),2700878.7895397833,1262554.098207048
Alters- und Wohnheim Brunisberg,"Uetzikon, Brunisberg 5",8634,Hombrechtikon,055 244 12 58,21,Meilen,293,POINT (2698187.982788634 1235429.984027963),2698187.9827886345,1235429.984027963
Tertianum Papillon,Wülflingerstrasse 193,8408,Winterthur,052 222 13 13,18,Winterthur,294,POINT (2695099.837811947 1262907.680014338),2695099.8378119473,1262907.6800143379
Alters- und Pflegeheim Breitlen,Obstgartenstrasse 2,8634,Hombrechtikon,055 254 31 11,53,Meilen,295,POINT (2700747.13385033 1234574.001031065),2700747.13385033,1234574.0010310647
Pflegewohnung Tägelmoos,Landvogt Waser-Strasse 55b,8405,Winterthur,052 233 19 10,8,Winterthur,296,POINT (2699803.666066731 1260470.856898691),2699803.6660667313,1260470.8568986906
Alters- und Pflegeheim Sonnengarten,Etzelstrasse 6,8634,Hombrechtikon,055 254 40 70,83,Meilen,297,POINT (2701464.340866708 1234414.380036684),2701464.340866708,1234414.3800366845
Wohnheim Sonnenberg,Hochwachtstrasse 20,8400,Winterthur,052 213 42 40,20,Winterthur,298,POINT (2696968.235375034 1261230.937261703),2696968.2353750337,1261230.9372617032
Alters- und Pflegeheim Sonnengarten - Pavillon Nord,Etzelstrasse 6,8634,Hombrechtikon,055 254 40 70,14,Meilen,299,POINT (2701464.340866708 1234414.380036684),2701464.340866708,1234414.3800366845
Seniorenresidenz Konradhof,Konradstrasse 7,8400,Winterthur,052 265 15 15,24,Winterthur,300,POINT (2696724.268801733 1262010.875533967),2696724.268801733,1262010.8755339673
Seniorenzentrum Wiesengrund,Wülflingerstrasse 7,8400,Winterthur,052 264 54 54,106,Winterthur,301,POINT (2696715.157960055 1262176.65088973),2696715.1579600554,1262176.65088973
Alters- und Pflegeheim Sonnengarten - Pavillon Süd,Etzelstrasse 6,8634,Hombrechtikon,055 254 40 70,14,Meilen,302,POINT (2701464.340866708 1234414.380036684),2701464.340866708,1234414.3800366845
Altersheim St. Urban,Seenerstrasse 191,8405,Winterthur,052 234 85 85,83,Winterthur,303,POINT (2699512.732640827 1260548.050928695),2699512.7326408266,1260548.0509286951
Wohn- und Pflegeheim Refugium,Mürtschenweg 5,8634,Hombrechtikon,055 244 37 00,16,Meilen,304,POINT (2701384.660173317 1234896.183754585),2701384.660173317,1234896.1837545848
"Altersheim St. Urban - Zentrum Freitag, Haus Margrit",Steinackerweg 15,8405,Winterthur,052 234 85 85,24,Winterthur,305,POINT (2699437.908059193 1260080.088691995),2699437.908059193,1260080.0886919955
Alters- und Gesundheitszentrum Tägerhalde,Tägermoosstrasse 27,8700,Küsnacht,043 266 71 71,99,Meilen,306,POINT (2687574.088712178 1242057.513716503),2687574.0887121777,1242057.513716503
"Altersheim St. Urban - Zentrum Freitag, Haus Annemarie",Steinackerweg 2,8405,Winterthur,052 234 85 85,12,Winterthur,307,POINT (2699435.187357636 1260118.635816555),2699435.1873576357,1260118.6358165545
Alters- und Gesundheitszentrum Wangensbach,Alte Landstrasse 136,8700,Küsnacht,044 913 74 00,38,Meilen,308,POINT (2686488.372332296 1241823.699808122),2686488.3723322963,1241823.6998081221
Residenz Küsnacht,Rietstrasse 25,8700,Küsnacht,044 913 21 11,140,Meilen,309,POINT (2688047.271164801 1243057.167149287),2688047.2711648005,1243057.167149287
Residenz Küsnacht - Seerose Männedorf,Seestrasse 227,8708,Männedorf,044 920 05 64,14,Meilen,310,POINT (2694892.558081542 1234229.832894949),2694892.5580815417,1234229.832894949
Allmendhof,Appisbergstrasse 7,8708,Männedorf,043 843 41 41,55,Meilen,311,POINT (2695101.143137693 1235159.1492903),2695101.1431376934,1235159.1492903002
SUNNMATT Privates Seniorenzentrum,Alte Landstrasse 139,8708,Männedorf,044 922 18 18,45,Meilen,312,POINT (2694606.315004108 1234837.78374941),2694606.315004108,1234837.78374941
Villa Alma - Privates Alters- und Pflegeheim,Seestrasse 80,8708,Männedorf,044 920 39 93,11,Meilen,313,POINT (2694197.151400142 1234706.69377396),2694197.151400142,1234706.6937739598
Altersheim Emmaus,Schwerzistrasse 32,8708,Männedorf,044 921 64 11,67,Meilen,314,POINT (2694894.277937136 1234632.509535715),2694894.277937136,1234632.5095357148
Alterszentrum Platten,Plattenstrasse 62,8706,Meilen,044 924 14 14,49,Meilen,315,POINT (2690860.794443961 1236557.988306538),2690860.7944439612,1236557.9883065375
Alterszentrum Platten am See,Seestrasse 264,8700,Küsnacht,044 924 14 14,56,Meilen,316,POINT (2686709.73343355 1240418.235900523),2686709.7334335498,1240418.2359005234
Alters- und Pflegeheim TERTIANUM Parkresidenz Meilen - Pflegeabteilung Geschoss D,Dorfstrasse 16,8706,Meilen,044 925 06 00,16,Meilen,317,POINT (2690810.51571474 1236114.80854236),2690810.5157147404,1236114.80854236
Alters- und Pflegeheim TERTIANUM Parkresidenz Meilen - Demenzwohngruppe Geschoss A,Dorfstrasse 16,8706,Meilen,044 925 06 00,5,Meilen,318,POINT (2690810.51571474 1236114.80854236),2690810.5157147404,1236114.80854236
Alters- und Pflegeheim TERTIANUM Parkresidenz Meilen - Pflegeabteilung Geschoss A,Dorfstrasse 16,8706,Meilen,044 925 06 00,6,Meilen,319,POINT (2690810.51571474 1236114.80854236),2690810.5157147404,1236114.80854236
Oase Oetwil am See,Willikonerstrasse 3,8618,Oetwil am See,043 844 82 82,29,Meilen,320,POINT (2697033.280860102 1236322.91565471),2697033.2808601023,1236322.9156547096
Alterszentrum Lanzeln,Bahnhofstrasse 58,8712,Stäfa,044 928 91 31,132,Meilen,321,POINT (2697485.374749691 1232814.636386354),2697485.374749691,1232814.6363863545
Alterszentrum Lanzeln - Aussen-Wohnbereich Geren,Gerenstrasse 17,8712,Stäfa,044 928 91 31,10,Meilen,322,POINT (2696760.600831249 1232943.211687735),2696760.6008312493,1232943.2116877346
Alterszentrum Wiesengrund,Etzelstrassse 44,8712,Stäfa,044 926 11 84,52,Meilen,323,POINT (2697188.103456499 1233484.310115491),2697188.1034564986,1233484.3101154908
Clienia Bergheim AG,Holländerstrasse 80,8707,Uetikon am See,044 929 87 11,141,Meilen,324,POINT (2694182.287296736 1236443.20297892),2694182.2872967357,1236443.20297892
Alters- und Pflegeheim Abendruh,Weissenrainstrasse 53,8707,Uetikon am See,043 843 31 31,50,Meilen,325,POINT (2694230.622785196 1235330.055057803),2694230.6227851957,1235330.0550578032
Haus Wäckerling,Tramstrasse 55,8707,Uetikon am See,043 843 37 11,136,Meilen,326,POINT (2694036.303088029 1235781.298895924),2694036.303088029,1235781.2988959244
TERTIANUM Residenz Zollikerberg,Sennhofweg 23,8125,Zollikerberg,044 396 12 12,32,Meilen,327,POINT (2688319.747391247 1244601.907620691),2688319.747391247,1244601.9076206915
Residenz Neumünster Park,Trichtenhauserstrasse 20-24,8125,Zollikerberg,044 397 31 61,65,Meilen,328,POINT (2687667.690581365 1244880.799528659),2687667.6905813646,1244880.7995286589
Wohn- und Pflegezentrum Blumenrain,Blumenrain 1,8702,Zollikon,044 395 45 45,107,Meilen,329,POINT (2685677.633162855 1244655.299777572),2685677.633162855,1244655.2997775723
Zumipark - Alters- und Pflegeresidenz,Küsnachterstrasse 7,8126,Zumikon,044 919 85 00,46,Meilen,330,POINT (2689021.678944811 1243234.648227141),2689021.678944811,1243234.6482271405
Alters- und Pflegeheim Blumenau,Lipperschwendi,8494,Bauma,052 386 13 48,55,Pfäffikon,331,POINT (2711792.969147569 1246682.359942361),2711792.969147569,1246682.359942361
Alters- und Pflegeheim Böndler,Böndlerstrasse 10,8494,Bauma,052 396 50 20,45,Pfäffikon,332,POINT (2707486.442862578 1247452.555387889),2707486.4428625777,1247452.555387889
Pflegezentrum Bauma AG,Sonnenhaldenstrasse 9,8494,Bauma,052 396 55 55,121,Pfäffikon,333,POINT (2709190.575019807 1247388.027887953),2709190.575019807,1247388.0278879532
Alterszentrum Bruggwiesen - Haus A,Märtplatz 19,8307,Illnau-Effretikon,052 355 19 90,67,Pfäffikon,334,POINT (2694049.489387319 1253694.499800707),2694049.4893873194,1253694.4998007067
Alterszentrum Bruggwiesen - Haus B/C,Märtplatz 19,8307,Illnau-Effretikon,052 355 19 90,90,Pfäffikon,335,POINT (2694049.489387319 1253694.499800707),2694049.4893873194,1253694.4998007067
Alterszentrum Bruggwiesen - Dezentrale Wohngruppe,Schlimpergstrasse 2,8307,Illnau-Effretikon,052 355 19 90,8,Pfäffikon,336,POINT (2694264.78365799 1253989.754323721),2694264.7836579904,1253989.7543237214
Alters- und Pflegeheim Neuhof,Hittnauerstrasse 34,8330,Pfäffikon,044 950 14 83,23,Pfäffikon,337,POINT (2702288.209475811 1246825.339071196),2702288.2094758106,1246825.339071196
Alterszentrum Sophie Guyer,Zelglistrasse 7,8330,Pfäffikon,044 952 56 56,86,Pfäffikon,338,POINT (2701681.997605118 1247231.417255264),2701681.9976051184,1247231.4172552645
